CCSDS_OMM_VERS = 2.0
CREATION_DATE  = 
ORIGINATOR     = 

OBJECT_NAME    = 2025-292J
OBJECT_ID      = 2025-292J
CENTER_NAME    = EARTH
REF_FRAME      = TEME
TIME_SYSTEM    = UTC
MEAN_ELEMENT_THEORY = SGP/SGP4

EPOCH          = 2025-12-14T22:27:32.891040
MEAN_MOTION    = 15.04329272
ECCENTRICITY   = .0014233
INCLINATION    = 97.6570
RA_OF_ASC_NODE = 61.4661
ARG_OF_PERICENTER = 260.5877
MEAN_ANOMALY   = 99.3740

EPHEMERIS_TYPE = 0
CLASSIFICATION_TYPE = U
NORAD_CAT_ID   = 67001
ELEMENT_SET_NO = 999
REV_AT_EPOCH   = 72
BSTAR          = .30223241E-3
MEAN_MOTION_DOT = .4159E-4
MEAN_MOTION_DDOT = 0

CCSDS_OMM_VERS = 2.0
CREATION_DATE  = 
ORIGINATOR     = 

OBJECT_NAME    = ZK-1A R/B
OBJECT_ID      = 2025-292K
CENTER_NAME    = EARTH
REF_FRAME      = TEME
TIME_SYSTEM    = UTC
MEAN_ELEMENT_THEORY = SGP/SGP4

EPOCH          = 2025-12-14T21:52:34.424256
MEAN_MOTION    = 15.55319822
ECCENTRICITY   = .02176359
INCLINATION    = 97.7241
RA_OF_ASC_NODE = 61.8650
ARG_OF_PERICENTER = 358.0352
MEAN_ANOMALY   = 2.0022

EPHEMERIS_TYPE = 0
CLASSIFICATION_TYPE = U
NORAD_CAT_ID   = 67002
ELEMENT_SET_NO = 999
REV_AT_EPOCH   = 73
BSTAR          = .64975416E-3
MEAN_MOTION_DOT = .132664E-2
MEAN_MOTION_DDOT = .6750053E-5

CCSDS_OMM_VERS = 2.0
CREATION_DATE  = 
ORIGINATOR     = 

OBJECT_NAME    = HULIANWANG DIGUI 16A
OBJECT_ID      = 2025-295A
CENTER_NAME    = EARTH
REF_FRAME      = TEME
TIME_SYSTEM    = UTC
MEAN_ELEMENT_THEORY = SGP/SGP4

EPOCH          = 2025-12-12T05:06:27.347328
MEAN_MOTION    = 14.25879966
ECCENTRICITY   = .00136284
INCLINATION    = 50.0035
RA_OF_ASC_NODE = 14.4753
ARG_OF_PERICENTER = 247.7813
MEAN_ANOMALY   = 112.1656

EPHEMERIS_TYPE = 0
CLASSIFICATION_TYPE = U
NORAD_CAT_ID   = 67059
ELEMENT_SET_NO = 999
REV_AT_EPOCH   = 4
BSTAR          = .3434713E-5
MEAN_MOTION_DOT = -.152E-5
MEAN_MOTION_DDOT = 0

CCSDS_OMM_VERS = 2.0
CREATION_DATE  = 
ORIGINATOR     = 

OBJECT_NAME    = HULIANWANG DIGUI 16B
OBJECT_ID      = 2025-295B
CENTER_NAME    = EARTH
REF_FRAME      = TEME
TIME_SYSTEM    = UTC
MEAN_ELEMENT_THEORY = SGP/SGP4

EPOCH          = 2025-12-12T05:06:25.468992
MEAN_MOTION    = 14.26022254
ECCENTRICITY   = .0013423
INCLINATION    = 50.0012
RA_OF_ASC_NODE = 14.4776
ARG_OF_PERICENTER = 244.6732
MEAN_ANOMALY   = 115.2792

EPHEMERIS_TYPE = 0
CLASSIFICATION_TYPE = U
NORAD_CAT_ID   = 67060
ELEMENT_SET_NO = 999
REV_AT_EPOCH   = 4
BSTAR          = .4398892E-5
MEAN_MOTION_DOT = -.15E-5
MEAN_MOTION_DDOT = 0

CCSDS_OMM_VERS = 2.0
CREATION_DATE  = 
ORIGINATOR     = 

OBJECT_NAME    = HULIANWANG DIGUI 16D
OBJECT_ID      = 2025-295D
CENTER_NAME    = EARTH
REF_FRAME      = TEME
TIME_SYSTEM    = UTC
MEAN_ELEMENT_THEORY = SGP/SGP4

EPOCH          = 2025-12-12T05:06:24.477120
MEAN_MOTION    = 14.25916921
ECCENTRICITY   = .00124974
INCLINATION    = 50.0052
RA_OF_ASC_NODE = 14.4731
ARG_OF_PERICENTER = 251.2247
MEAN_ANOMALY   = 108.7311

EPHEMERIS_TYPE = 0
CLASSIFICATION_TYPE = U
NORAD_CAT_ID   = 67062
ELEMENT_SET_NO = 999
REV_AT_EPOCH   = 4
BSTAR          = .3753899E-5
MEAN_MOTION_DOT = -.151E-5
MEAN_MOTION_DDOT = 0

CCSDS_OMM_VERS = 2.0
CREATION_DATE  = 
ORIGINATOR     = 

OBJECT_NAME    = HULIANWANG DIGUI 16F
OBJECT_ID      = 2025-295F
CENTER_NAME    = EARTH
REF_FRAME      = TEME
TIME_SYSTEM    = UTC
MEAN_ELEMENT_THEORY = SGP/SGP4

EPOCH          = 2025-12-12T05:06:22.414752
MEAN_MOTION    = 14.26957674
ECCENTRICITY   = .00149026
INCLINATION    = 50.0027
RA_OF_ASC_NODE = 14.4596
ARG_OF_PERICENTER = 247.8107
MEAN_ANOMALY   = 112.1227

EPHEMERIS_TYPE = 0
CLASSIFICATION_TYPE = U
NORAD_CAT_ID   = 67064
ELEMENT_SET_NO = 999
REV_AT_EPOCH   = 4
BSTAR          = .26251967E-4
MEAN_MOTION_DOT = -.96E-6
MEAN_MOTION_DDOT = 0

CCSDS_OMM_VERS = 2.0
CREATION_DATE  = 
ORIGINATOR     = 

OBJECT_NAME    = HULIANWANG DIGUI 16H
OBJECT_ID      = 2025-295H
CENTER_NAME    = EARTH
REF_FRAME      = TEME
TIME_SYSTEM    = UTC
MEAN_ELEMENT_THEORY = SGP/SGP4

EPOCH          = 2025-12-12T05:06:20.088000
MEAN_MOTION    = 14.26429655
ECCENTRICITY   = .00114905
INCLINATION    = 50.0029
RA_OF_ASC_NODE = 14.4606
ARG_OF_PERICENTER = 248.6611
MEAN_ANOMALY   = 111.3077

EPHEMERIS_TYPE = 0
CLASSIFICATION_TYPE = U
NORAD_CAT_ID   = 67066
ELEMENT_SET_NO = 999
REV_AT_EPOCH   = 4
BSTAR          = .24353642E-4
MEAN_MOTION_DOT = -.101E-5
MEAN_MOTION_DDOT = 0

CCSDS_OMM_VERS = 2.0
CREATION_DATE  = 
ORIGINATOR     = 

OBJECT_NAME    = HULIANWANG DIGUI 16J
OBJECT_ID      = 2025-295J
CENTER_NAME    = EARTH
REF_FRAME      = TEME
TIME_SYSTEM    = UTC
MEAN_ELEMENT_THEORY = SGP/SGP4

EPOCH          = 2025-12-12T05:06:18.555264
MEAN_MOTION    = 14.26361638
ECCENTRICITY   = .00104901
INCLINATION    = 50.0044
RA_OF_ASC_NODE = 14.4694
ARG_OF_PERICENTER = 253.0387
MEAN_ANOMALY   = 106.9378

EPHEMERIS_TYPE = 0
CLASSIFICATION_TYPE = U
NORAD_CAT_ID   = 67067
ELEMENT_SET_NO = 999
REV_AT_EPOCH   = 4
BSTAR          = .6475965E-5
MEAN_MOTION_DOT = -.145E-5
MEAN_MOTION_DDOT = 0

CCSDS_OMM_VERS = 2.0
CREATION_DATE  = 
ORIGINATOR     = 

OBJECT_NAME    = KZ-11 R/B
OBJECT_ID      = 2025-296C
CENTER_NAME    = EARTH
REF_FRAME      = TEME
TIME_SYSTEM    = UTC
MEAN_ELEMENT_THEORY = SGP/SGP4

EPOCH          = 2025-12-13T03:57:12.269376
MEAN_MOTION    = 14.41614344
ECCENTRICITY   = .08603054
INCLINATION    = 41.3405
RA_OF_ASC_NODE = 99.1629
ARG_OF_PERICENTER = 320.0027
MEAN_ANOMALY   = 34.0350

EPHEMERIS_TYPE = 0
CLASSIFICATION_TYPE = U
NORAD_CAT_ID   = 67071
ELEMENT_SET_NO = 999
REV_AT_EPOCH   = 2
BSTAR          = .12972566E-3
MEAN_MOTION_DOT = .801494E-2
MEAN_MOTION_DDOT = .4646094E-5

CCSDS_OMM_VERS = 2.0
CREATION_DATE  = 
ORIGINATOR     = 

OBJECT_NAME    = ELECTRON R/B
OBJECT_ID      = 2025-297A
CENTER_NAME    = EARTH
REF_FRAME      = TEME
TIME_SYSTEM    = UTC
MEAN_ELEMENT_THEORY = SGP/SGP4

EPOCH          = 2025-12-14T22:11:05.053056
MEAN_MOTION    = 15.71495264
ECCENTRICITY   = .02597271
INCLINATION    = 97.4828
RA_OF_ASC_NODE = 136.4870
ARG_OF_PERICENTER = 224.2905
MEAN_ANOMALY   = 133.7317

EPHEMERIS_TYPE = 0
CLASSIFICATION_TYPE = U
NORAD_CAT_ID   = 67072
ELEMENT_SET_NO = 999
REV_AT_EPOCH   = 13
BSTAR          = .12785881E-2
MEAN_MOTION_DOT = .1560771E-1
MEAN_MOTION_DDOT = .2254797E-5

CCSDS_OMM_VERS = 2.0
CREATION_DATE  = 
ORIGINATOR     = 

OBJECT_NAME    = RAISE-4
OBJECT_ID      = 2025-297B
CENTER_NAME    = EARTH
REF_FRAME      = TEME
TIME_SYSTEM    = UTC
MEAN_ELEMENT_THEORY = SGP/SGP4

EPOCH          = 2025-12-14T22:57:15.329952
MEAN_MOTION    = 15.07143687
ECCENTRICITY   = .00119161
INCLINATION    = 97.4849
RA_OF_ASC_NODE = 136.4463
ARG_OF_PERICENTER = 312.6062
MEAN_ANOMALY   = 47.4160

EPHEMERIS_TYPE = 0
CLASSIFICATION_TYPE = U
NORAD_CAT_ID   = 67073
ELEMENT_SET_NO = 999
REV_AT_EPOCH   = 12
BSTAR          = .41310376E-3
MEAN_MOTION_DOT = .6159E-4
MEAN_MOTION_DDOT = 0

